CCSDS_OMM_VERS = 2.0
CREATION_DATE  = 
ORIGINATOR     = 

OBJECT_NAME    = COSMOS 1933
OBJECT_ID      = 1988-020A
CENTER_NAME    = EARTH
REF_FRAME      = TEME
TIME_SYSTEM    = UTC
MEAN_ELEMENT_THEORY = SGP/SGP4

EPOCH          = 2026-01-13T05:03:54.765792
MEAN_MOTION    = 15.17441480
ECCENTRICITY   = .0005764
INCLINATION    = 82.5149
RA_OF_ASC_NODE = 305.7792
ARG_OF_PERICENTER = 49.3101
MEAN_ANOMALY   = 310.8633

EPHEMERIS_TYPE = 0
CLASSIFICATION_TYPE = U
NORAD_CAT_ID   = 18958
ELEMENT_SET_NO = 999
REV_AT_EPOCH   = 4181
BSTAR          = .21499E-3
MEAN_MOTION_DOT = .4332E-4
MEAN_MOTION_DDOT = 0

CCSDS_OMM_VERS = 2.0
CREATION_DATE  = 
ORIGINATOR     = 

OBJECT_NAME    = SL-3 R/B
OBJECT_ID      = 1988-032B
CENTER_NAME    = EARTH
REF_FRAME      = TEME
TIME_SYSTEM    = UTC
MEAN_ELEMENT_THEORY = SGP/SGP4

EPOCH          = 2026-01-13T22:39:26.002080
MEAN_MOTION    = 15.19131252
ECCENTRICITY   = .00282819
INCLINATION    = 97.5109
RA_OF_ASC_NODE = 357.4558
ARG_OF_PERICENTER = 66.5392
MEAN_ANOMALY   = 293.8811

EPHEMERIS_TYPE = 0
CLASSIFICATION_TYPE = U
NORAD_CAT_ID   = 19046
ELEMENT_SET_NO = 999
REV_AT_EPOCH   = 4379
BSTAR          = .16439658E-3
MEAN_MOTION_DOT = .3418E-4
MEAN_MOTION_DDOT = 0

CCSDS_OMM_VERS = 2.0
CREATION_DATE  = 
ORIGINATOR     = 

OBJECT_NAME    = SL-16 R/B
OBJECT_ID      = 1988-039B
CENTER_NAME    = EARTH
REF_FRAME      = TEME
TIME_SYSTEM    = UTC
MEAN_ELEMENT_THEORY = SGP/SGP4

EPOCH          = 2026-01-13T17:41:52.611936
MEAN_MOTION    = 14.19604892
ECCENTRICITY   = .00197644
INCLINATION    = 71.0134
RA_OF_ASC_NODE = 184.7424
ARG_OF_PERICENTER = 61.4289
MEAN_ANOMALY   = 298.8822

EPHEMERIS_TYPE = 0
CLASSIFICATION_TYPE = U
NORAD_CAT_ID   = 19120
ELEMENT_SET_NO = 999
REV_AT_EPOCH   = 95058
BSTAR          = .59835128E-4
MEAN_MOTION_DOT = .79E-6
MEAN_MOTION_DDOT = 0

CCSDS_OMM_VERS = 2.0
CREATION_DATE  = 
ORIGINATOR     = 

OBJECT_NAME    = COSMOS 1953
OBJECT_ID      = 1988-050A
CENTER_NAME    = EARTH
REF_FRAME      = TEME
TIME_SYSTEM    = UTC
MEAN_ELEMENT_THEORY = SGP/SGP4

EPOCH          = 2026-01-13T13:10:24.902976
MEAN_MOTION    = 15.27368252
ECCENTRICITY   = .00109647
INCLINATION    = 82.5071
RA_OF_ASC_NODE = 213.6526
ARG_OF_PERICENTER = 324.5675
MEAN_ANOMALY   = 35.4835

EPHEMERIS_TYPE = 0
CLASSIFICATION_TYPE = U
NORAD_CAT_ID   = 19210
ELEMENT_SET_NO = 999
REV_AT_EPOCH   = 2936
BSTAR          = .20290974E-3
MEAN_MOTION_DOT = .5477E-4
MEAN_MOTION_DDOT = 0

CCSDS_OMM_VERS = 2.0
CREATION_DATE  = 
ORIGINATOR     = 

OBJECT_NAME    = SL-8 R/B
OBJECT_ID      = 1988-053B
CENTER_NAME    = EARTH
REF_FRAME      = TEME
TIME_SYSTEM    = UTC
MEAN_ELEMENT_THEORY = SGP/SGP4

EPOCH          = 2026-01-13T18:59:13.747776
MEAN_MOTION    = 14.38879813
ECCENTRICITY   = .00193366
INCLINATION    = 74.0453
RA_OF_ASC_NODE = 213.6478
ARG_OF_PERICENTER = 45.9372
MEAN_ANOMALY   = 325.4460

EPHEMERIS_TYPE = 0
CLASSIFICATION_TYPE = U
NORAD_CAT_ID   = 19257
ELEMENT_SET_NO = 999
REV_AT_EPOCH   = 96870
BSTAR          = .43733717E-4
MEAN_MOTION_DOT = .109E-5
MEAN_MOTION_DDOT = 0

CCSDS_OMM_VERS = 2.0
CREATION_DATE  = 
ORIGINATOR     = 

OBJECT_NAME    = COSMOS 1975
OBJECT_ID      = 1988-093A
CENTER_NAME    = EARTH
REF_FRAME      = TEME
TIME_SYSTEM    = UTC
MEAN_ELEMENT_THEORY = SGP/SGP4

EPOCH          = 2026-01-13T12:04:23.154528
MEAN_MOTION    = 15.26996746
ECCENTRICITY   = .00118245
INCLINATION    = 82.5199
RA_OF_ASC_NODE = 173.0180
ARG_OF_PERICENTER = 10.6038
MEAN_ANOMALY   = 349.5447

EPHEMERIS_TYPE = 0
CLASSIFICATION_TYPE = U
NORAD_CAT_ID   = 19573
ELEMENT_SET_NO = 999
REV_AT_EPOCH   = 1098
BSTAR          = .20137968E-3
MEAN_MOTION_DOT = .5377E-4
MEAN_MOTION_DDOT = 0

CCSDS_OMM_VERS = 2.0
CREATION_DATE  = 
ORIGINATOR     = 

OBJECT_NAME    = SL-14 R/B
OBJECT_ID      = 1988-093B
CENTER_NAME    = EARTH
REF_FRAME      = TEME
TIME_SYSTEM    = UTC
MEAN_ELEMENT_THEORY = SGP/SGP4

EPOCH          = 2026-01-13T17:05:25.066752
MEAN_MOTION    = 14.85590539
ECCENTRICITY   = .00198199
INCLINATION    = 82.5312
RA_OF_ASC_NODE = 93.6641
ARG_OF_PERICENTER = 216.6693
MEAN_ANOMALY   = 259.3481

EPHEMERIS_TYPE = 0
CLASSIFICATION_TYPE = U
NORAD_CAT_ID   = 19574
ELEMENT_SET_NO = 999
REV_AT_EPOCH   = 99287
BSTAR          = .39729526E-4
MEAN_MOTION_DOT = .369E-5
MEAN_MOTION_DDOT = 0

CCSDS_OMM_VERS = 2.0
CREATION_DATE  = 
ORIGINATOR     = 

OBJECT_NAME    = SL-16 R/B
OBJECT_ID      = 1988-102B
CENTER_NAME    = EARTH
REF_FRAME      = TEME
TIME_SYSTEM    = UTC
MEAN_ELEMENT_THEORY = SGP/SGP4

EPOCH          = 2026-01-13T17:44:01.226976
MEAN_MOTION    = 14.16143041
ECCENTRICITY   = .00119998
INCLINATION    = 70.9990
RA_OF_ASC_NODE = 267.1161
ARG_OF_PERICENTER = 95.6579
MEAN_ANOMALY   = 264.5913

EPHEMERIS_TYPE = 0
CLASSIFICATION_TYPE = U
NORAD_CAT_ID   = 19650
ELEMENT_SET_NO = 999
REV_AT_EPOCH   = 91911
BSTAR          = .14577429E-3
MEAN_MOTION_DOT = .241E-5
MEAN_MOTION_DDOT = 0

CCSDS_OMM_VERS = 2.0
CREATION_DATE  = 
ORIGINATOR     = 

OBJECT_NAME    = INTERCOSMOS 24
OBJECT_ID      = 1989-080A
CENTER_NAME    = EARTH
REF_FRAME      = TEME
TIME_SYSTEM    = UTC
MEAN_ELEMENT_THEORY = SGP/SGP4

EPOCH          = 2026-01-13T18:12:19.700640
MEAN_MOTION    = 12.59486068
ECCENTRICITY   = .11889917
INCLINATION    = 82.6077
RA_OF_ASC_NODE = 140.1396
ARG_OF_PERICENTER = 60.2831
MEAN_ANOMALY   = 311.1265

EPHEMERIS_TYPE = 0
CLASSIFICATION_TYPE = U
NORAD_CAT_ID   = 20261
ELEMENT_SET_NO = 999
REV_AT_EPOCH   = 65988
BSTAR          = .90791225E-4
MEAN_MOTION_DOT = .338E-5
MEAN_MOTION_DDOT = 0

CCSDS_OMM_VERS = 2.0
CREATION_DATE  = 
ORIGINATOR     = 

OBJECT_NAME    = SL-14 R/B
OBJECT_ID      = 1989-080C
CENTER_NAME    = EARTH
REF_FRAME      = TEME
TIME_SYSTEM    = UTC
MEAN_ELEMENT_THEORY = SGP/SGP4

EPOCH          = 2026-01-13T21:45:02.269728
MEAN_MOTION    = 12.50438009
ECCENTRICITY   = .12297892
INCLINATION    = 82.5912
RA_OF_ASC_NODE = 208.3649
ARG_OF_PERICENTER = 310.0635
MEAN_ANOMALY   = 39.8709

EPHEMERIS_TYPE = 0
CLASSIFICATION_TYPE = U
NORAD_CAT_ID   = 20262
ELEMENT_SET_NO = 999
REV_AT_EPOCH   = 65330
BSTAR          = .58882647E-4
MEAN_MOTION_DOT = .197E-5
MEAN_MOTION_DDOT = 0

CCSDS_OMM_VERS = 2.0
CREATION_DATE  = 
ORIGINATOR     = 

OBJECT_NAME    = DELTA 1 R/B
OBJECT_ID      = 1989-089B
CENTER_NAME    = EARTH
REF_FRAME      = TEME
TIME_SYSTEM    = UTC
MEAN_ELEMENT_THEORY = SGP/SGP4

EPOCH          = 2026-01-13T20:28:07.055616
MEAN_MOTION    = 14.50604980
ECCENTRICITY   = .00677277
INCLINATION    = 97.0736
RA_OF_ASC_NODE = 229.9991
ARG_OF_PERICENTER = 296.6146
MEAN_ANOMALY   = 62.8124

EPHEMERIS_TYPE = 0
CLASSIFICATION_TYPE = U
NORAD_CAT_ID   = 20323
ELEMENT_SET_NO = 999
REV_AT_EPOCH   = 88778
BSTAR          = .82045822E-4
MEAN_MOTION_DOT = .295E-5
MEAN_MOTION_DDOT = 0

CCSDS_OMM_VERS = 2.0
CREATION_DATE  = 
ORIGINATOR     = 

OBJECT_NAME    = ARIANE 40 R/B
OBJECT_ID      = 1990-005H
CENTER_NAME    = EARTH
REF_FRAME      = TEME
TIME_SYSTEM    = UTC
MEAN_ELEMENT_THEORY = SGP/SGP4

EPOCH          = 2026-01-13T16:57:10.892448
MEAN_MOTION    = 14.39825356
ECCENTRICITY   = .00102639
INCLINATION    = 98.3196
RA_OF_ASC_NODE = 75.9741
ARG_OF_PERICENTER = 17.1015
MEAN_ANOMALY   = 343.0518

EPHEMERIS_TYPE = 0
CLASSIFICATION_TYPE = U
NORAD_CAT_ID   = 20443
ELEMENT_SET_NO = 999
REV_AT_EPOCH   = 88489
BSTAR          = .73319878E-4
MEAN_MOTION_DOT = .188E-5
MEAN_MOTION_DDOT = 0

