COSMOS 1933             
1 18958U 88020A   26013.21105053  .00004332  00000+0  21499-3 0  9997
2 18958  82.5149 305.7792 0005764  49.3101 310.8633 15.17441480 41818
SL-3 R/B                
1 19046U 88032B   26013.94405095  .00003418  00000+0  16440-3 0  9992
2 19046  97.5109 357.4558 0028281  66.5392 293.8811 15.19131252 43797
SL-16 R/B               
1 19120U 88039B   26013.73741449  .00000079  00000+0  59835-4 0  9991
2 19120  71.0134 184.7424 0019764  61.4289 298.8822 14.19604892950588
COSMOS 1953             
1 19210U 88050A   26013.54889934  .00005477  00000+0  20291-3 0  9995
2 19210  82.5071 213.6526 0010964 324.5675  35.4835 15.27368252 29364
SL-8 R/B                
1 19257U 88053B   26013.79113134  .00000109  00000+0  43734-4 0  9993
2 19257  74.0453 213.6478 0019336  45.9372 325.4460 14.38879813968708
COSMOS 1975             
1 19573U 88093A   26013.50304577  .00005377  00000+0  20138-3 0  9994
2 19573  82.5199 173.0180 0011824  10.6038 349.5447 15.26996746 10984
SL-14 R/B               
1 19574U 88093B   26013.71209568  .00000369  00000+0  39730-4 0  9997
2 19574  82.5312  93.6641 0019819 216.6693 259.3481 14.85590539992875
SL-16 R/B               
1 19650U 88102B   26013.73890309  .00000241  00000+0  14577-3 0  9994
2 19650  70.9990 267.1161 0011999  95.6579 264.5913 14.16143041919117
INTERCOSMOS 24          
1 20261U 89080A   26013.75856135  .00000338  00000+0  90791-4 0  9991
2 20261  82.6077 140.1396 1188991  60.2831 311.1265 12.59486068659888
SL-14 R/B               
1 20262U 89080C   26013.90627627  .00000197  00000+0  58883-4 0  9990
2 20262  82.5912 208.3649 1229789 310.0635  39.8709 12.50438009653304
DELTA 1 R/B             
1 20323U 89089B   26013.85285944  .00000295  00000+0  82046-4 0  9990
2 20323  97.0736 229.9991 0067727 296.6146  62.8124 14.50604980887786
ARIANE 40 R/B           
1 20443U 90005H   26013.70637607  .00000188  00000+0  73320-4 0  9990
2 20443  98.3196  75.9741 0010263  17.1015 343.0518 14.39825356884898
